     2              NAVIGATION DATA                         RINEX VERSION / TYPE
CCRINEXN V1.6.0 UX  CDDIS               01-DEC-16 17:31     PGM / RUN BY / DATE 
IGS BROADCAST EPHEMERIS FILE                                COMMENT             
    0.1024D-07 -0.1490D-07 -0.5960D-07  0.1192D-06          ION ALPHA           
    0.9830D+05 -0.1475D+06 -0.1966D+06  0.8520D+06          ION BETA            
    0.931322574615D-09 0.000000000000D+00   405504     1925 DELTA-UTC: A0,A1,T,W
    17                                                      LEAP SECONDS        
                                                            END OF HEADER       
13 16 11 30 22  0  0.0-0.576591119170D-04-0.193267624127D-11 0.000000000000D+00
    0.730000000000D+02 0.187187500000D+02 0.418231706744D-08 0.171024458200D+01
    0.961124897003D-06 0.403263291810D-02 0.107698142529D-04 0.515369251823D+04
    0.338400000000D+06 0.502914190292D-07 0.294354359692D+01-0.353902578354D-07
    0.970788174458D+00 0.177562500000D+03 0.188403504832D+01-0.765603319023D-08
   -0.441446959466D-09 0.100000000000D+01 0.192500000000D+04 0.000000000000D+00
    0.200000000000D+01 0.000000000000D+00-0.111758708954D-07 0.730000000000D+02
    0.331200000000D+06 0.400000000000D+01 0.000000000000D+00 0.000000000000D+00
15 16 11 30 22  0  0.0-0.336028169841D-03-0.125055521494D-11 0.000000000000D+00
    0.890000000000D+02-0.671875000000D+01 0.518521598506D-08 0.267900176681D+01
   -0.361353158951D-06 0.887093192432D-02 0.966899096966D-05 0.515371241379D+04
    0.338400000000D+06-0.111758708954D-06 0.276291667450D+01-0.856816768646D-07
    0.930093215259D+00 0.177500000000D+03 0.539033666813D+00-0.806533595362D-08
   -0.506092509356D-09 0.100000000000D+01 0.192500000000D+04 0.000000000000D+00
    0.200000000000D+01 0.000000000000D+00-0.107102096081D-07 0.890000000000D+02
    0.331200000000D+06 0.400000000000D+01 0.000000000000D+00 0.000000000000D+00
16 16 11 30 22  0  0.0 0.176467001438D-04 0.147792889038D-11 0.000000000000D+00
    0.790000000000D+02-0.185625000000D+02 0.411374267983D-08-0.185573870020D+01
   -0.964850187302D-06 0.881668494549D-02 0.799074769020D-06 0.515360310555D+04
    0.338400000000D+06-0.931322574616D-08-0.128550978874D+01-0.949949026108D-07
    0.990178597690D+00 0.380625000000D+03 0.381646200182D+00-0.811069522655D-08
   -0.117862048246D-10 0.100000000000D+01 0.192500000000D+04 0.000000000000D+00
    0.200000000000D+01 0.000000000000D+00-0.102445483208D-07 0.790000000000D+02
    0.331200000000D+06 0.000000000000D+00 0.000000000000D+00 0.000000000000D+00
17 16 11 30 22  0  0.0-0.198056455702D-03 0.795807864051D-12 0.000000000000D+00
    0.460000000000D+02-0.130687500000D+03 0.373801284610D-08-0.289435327201D+01
   -0.665895640850D-05 0.115416079061D-01 0.816024839878D-05 0.515378374672D+04
    0.338400000000D+06 0.931322574615D-07-0.266064872658D+00-0.838190317154D-07
    0.978653056119D+00 0.230031250000D+03-0.190675694856D+01-0.747995442727D-08
   -0.100004165575D-09 0.100000000000D+01 0.192500000000D+04 0.000000000000D+00
    0.200000000000D+01 0.000000000000D+00-0.107102096081D-07 0.460000000000D+02
    0.331200000000D+06 0.400000000000D+01 0.000000000000D+00 0.000000000000D+00
18 16 11 30 22  0  0.0 0.580382533371D-03 0.306954461848D-11 0.000000000000D+00
    0.200000000000D+02 0.443750000000D+01 0.584560063559D-08-0.129076891926D+01
    0.668689608574D-06 0.173028692370D-01 0.441260635853D-05 0.515371911812D+04
    0.338400000000D+06 0.111758708954D-06 0.174266196889D+01 0.456348061562D-06
    0.924712552824D+00 0.274343750000D+03-0.184849973243D+01-0.867857578323D-08
    0.578595529398D-10 0.100000000000D+01 0.192500000000D+04 0.000000000000D+00
    0.200000000000D+01 0.000000000000D+00-0.111758708954D-07 0.200000000000D+02
    0.331200000000D+06 0.400000000000D+01 0.000000000000D+00 0.000000000000D+00
19 16 11 30 22  0  0.0-0.519005581737D-03 0.795807864051D-12 0.000000000000D+00
    0.230000000000D+02-0.113812500000D+03 0.386301805306D-08 0.286545320540D+00
   -0.582449138165D-05 0.102770865196D-01 0.872276723385D-05 0.515364190865D+04
    0.338400000000D+06-0.137835741043D-06-0.217813723604D+00 0.204890966415D-06
    0.975846886660D+00 0.222218750000D+03 0.892691354875D+00-0.781889711702D-08
   -0.116790579082D-09 0.100000000000D+01 0.192500000000D+04 0.000000000000D+00
    0.200000000000D+01 0.000000000000D+00-0.149011611938D-07 0.230000000000D+02
    0.331200000000D+06 0.400000000000D+01 0.000000000000D+00 0.000000000000D+00
20 16 11 30 22  0  0.0 0.448565930128D-03 0.181898940355D-11 0.000000000000D+00
    0.160000000000D+02 0.653125000000D+01 0.578452666304D-08 0.256915400584D+01
    0.242143869400D-06 0.477623043116D-02 0.430643558502D-05 0.515359917641D+04
    0.338400000000D+06 0.428408384323D-07 0.169107051997D+01-0.651925802231D-07
    0.926020562508D+00 0.278281250000D+03 0.150281699891D+01-0.854999899892D-08
    0.903609067516D-10 0.100000000000D+01 0.192500000000D+04 0.000000000000D+00
    0.200000000000D+01 0.000000000000D+00-0.838190317154D-08 0.160000000000D+02
    0.331200000000D+06 0.400000000000D+01 0.000000000000D+00 0.000000000000D+00
21 16 11 30 22  0  0.0-0.530113000423D-03 0.102318153950D-11 0.000000000000D+00
    0.230000000000D+02 0.587500000000D+01 0.500306554062D-08-0.357212164989D+00
    0.396743416786D-06 0.234698982676D-01 0.103842467070D-04 0.515378282165D+04
    0.338400000000D+06-0.281259417534D-06 0.701140815844D+00 0.299885869026D-06
    0.938056100728D+00 0.174218750000D+03-0.173839038415D+01-0.854357015971D-08
    0.686457165125D-09 0.100000000000D+01 0.192500000000D+04 0.000000000000D+00
    0.200000000000D+01 0.000000000000D+00-0.977888703346D-08 0.230000000000D+02
    0.331200000000D+06 0.400000000000D+01 0.000000000000D+00 0.000000000000D+00
22 16 11 30 22  0  0.0 0.175177119672D-03-0.109139364213D-10 0.000000000000D+00
    0.870000000000D+02 0.356250000000D+01 0.585024368613D-08 0.293045800682D+01
    0.167638063431D-07 0.729347323067D-02 0.454112887383D-05 0.515364839363D+04
    0.338400000000D+06 0.875443220139D-07 0.174290522876D+01-0.745058059692D-07
    0.922685365298D+00 0.273468750000D+03-0.184219190909D+01-0.848785355317D-08
    0.100361323309D-09 0.100000000000D+01 0.192500000000D+04 0.000000000000D+00
    0.200000000000D+01 0.000000000000D+00-0.176951289177D-07 0.870000000000D+02
    0.333090000000D+06 0.400000000000D+01 0.000000000000D+00 0.000000000000D+00
23 16 11 30 22  0  0.0-0.198361463845D-03-0.113686837722D-11 0.000000000000D+00
    0.200000000000D+02-0.196875000000D+01 0.488734652748D-08 0.221755761324D+01
   -0.119209289551D-06 0.111355317058D-01 0.102669000626D-04 0.515357901764D+04
    0.338400000000D+06-0.249594449997D-06 0.282355182447D+01-0.167638063431D-06
    0.945372474421D+00 0.176562500000D+03-0.252078049978D+01-0.798783261757D-08
   -0.513235676181D-09 0.100000000000D+01 0.192500000000D+04 0.000000000000D+00
    0.200000000000D+01 0.000000000000D+00-0.200234353542D-07 0.200000000000D+02
    0.331200000000D+06 0.000000000000D+00 0.000000000000D+00 0.000000000000D+00
24 16 11 30 22  0  0.0-0.268556177616D-04-0.568434188608D-12 0.000000000000D+00
    0.520000000000D+02 0.123156250000D+03 0.472555398115D-08 0.161577534943D+01
    0.652112066746D-05 0.509186903946D-02 0.782310962677D-05 0.515372306251D+04
    0.338400000000D+06-0.130385160446D-07-0.243547087086D+01 0.135973095894D-06
    0.947615508195D+00 0.221031250000D+03 0.402931269099D+00-0.820641325862D-08
    0.710743891050D-10 0.100000000000D+01 0.192500000000D+04 0.000000000000D+00
    0.200000000000D+01 0.000000000000D+00 0.232830643654D-08 0.520000000000D+02
    0.333330000000D+06 0.400000000000D+01 0.000000000000D+00 0.000000000000D+00
25 16 11 30 22  0  0.0-0.291523523629D-03-0.682121026330D-11 0.000000000000D+00
    0.590000000000D+02-0.106875000000D+02 0.449340145392D-08-0.449748103048D+00
   -0.583007931709D-06 0.574635900557D-02 0.676140189171D-06 0.515366402245D+04
    0.338400000000D+06 0.279396772385D-07-0.135751334241D+01 0.540167093277D-07
    0.977744591307D+00 0.372843750000D+03 0.757603016864D+00-0.841070748258D-08
   -0.122505102829D-09 0.100000000000D+01 0.192500000000D+04 0.000000000000D+00
    0.200000000000D+01 0.000000000000D+00 0.558793544769D-08 0.590000000000D+02
    0.334560000000D+06 0.400000000000D+01 0.000000000000D+00 0.000000000000D+00
26 16 11 30 22  0  0.0-0.506586860865D-03-0.386535248253D-11 0.000000000000D+00
    0.580000000000D+02-0.109375000000D+01 0.478877071330D-08-0.788818982277D+00
   -0.186264514923D-07 0.131887022872D-02 0.577419996262D-06 0.515361528587D+04
    0.338400000000D+06-0.204890966415D-07-0.136980341082D+01-0.689178705216D-07
    0.959623512834D+00 0.370062500000D+03-0.200579488015D+00-0.851606873908D-08
   -0.871464844732D-10 0.100000000000D+01 0.192500000000D+04 0.000000000000D+00
    0.200000000000D+01 0.000000000000D+00 0.745058059692D-08 0.580000000000D+02
    0.331200000000D+06 0.000000000000D+00 0.000000000000D+00 0.000000000000D+00
27 16 11 30 22  0  0.0 0.172839034349D-03 0.534328137292D-11 0.000000000000D+00
    0.640000000000D+02-0.135000000000D+03 0.396052211450D-08-0.276553441280D+01
   -0.688619911671D-05 0.397651595995D-02 0.822544097900D-05 0.515366060638D+04
    0.338400000000D+06-0.111758708954D-07-0.317029922003D+00 0.260770320892D-07
    0.973557526659D+00 0.227593750000D+03 0.305691525691D+00-0.778568144774D-08
   -0.176793078427D-09 0.100000000000D+01 0.192500000000D+04 0.000000000000D+00
    0.200000000000D+01 0.000000000000D+00 0.139698386192D-08 0.640000000000D+02
    0.331200000000D+06 0.400000000000D+01 0.000000000000D+00 0.000000000000D+00
